MSG-3                   
1 38552U 12035B   17345.77647664 -.00000013  00000-0  00000+0 0  9995
2 38552   0.8481  14.8758 0001727 265.9961  79.1136  1.00276372 20045
